[{"OBJECT_NAME":"STARLINK-4783","OBJECT_ID":"2022-114T","EPOCH":"2026-03-09T21:12:13.254336","MEAN_MOTION":15.08833005,"ECCENTRICITY":0.00013699,"INCLINATION":53.219,"RA_OF_ASC_NODE":303.0407,"ARG_OF_PERICENTER":101.692,"MEAN_ANOMALY":258.4226,"EPHEMERIS_TYPE":0,"CLASSIFICATION_TYPE":"U","NORAD_CAT_ID":53835,"ELEMENT_SET_NO":999,"REV_AT_EPOCH":19286,"BSTAR":1.897369e-5,"MEAN_MOTION_DOT":1.4e-7,"MEAN_MOTION_DDOT":0},{"OBJECT_NAME":"FENGYUN 1C DEB","OBJECT_ID":"1999-025DZE","EPOCH":"2026-02-28T06:22:54.338880","MEAN_MOTION":15.08907087,"ECCENTRICITY":0.00232464,"INCLINATION":99.4552,"RA_OF_ASC_NODE":173.2368,"ARG_OF_PERICENTER":218.3208,"MEAN_ANOMALY":141.6363,"EPHEMERIS_TYPE":0,"CLASSIFICATION_TYPE":"U","NORAD_CAT_ID":36684,"ELEMENT_SET_NO":999,"REV_AT_EPOCH":67065,"BSTAR":0.0055309563,"MEAN_MOTION_DOT":0.00088715,"MEAN_MOTION_DDOT":0}]
